STAR ONE C2             
1 32768U 08018B   23250.05186867 -.00000288  00000+0  00000+0 0  9993
2 32768   0.0428 319.6639 0002823 225.9882 113.8928  1.00271480 56376
AMOS-3                  
1 32794U 08022A   23249.87243162 -.00000046  00000+0  00000+0 0  9999
2 32794   0.0144 138.6508 0002850  24.8162 132.1706  1.00272797 72166
GALAXY 18 (G-18)        
1 32951U 08024A   23249.96867508  .00000013  00000+0  00000+0 0  9995
2 32951   0.0141 206.2816 0003465 334.2682  30.9646  1.00274393 55916
CHINASAT 9 (ZX 9)       
1 33051U 08028A   23249.91716124 -.00000259  00000+0  00000+0 0  9996
2 33051   0.0093 170.5518 0005166  11.7969 225.7786  1.00271993 55867
SKYNET 5C               
1 33055U 08030A   23249.98956049 -.00000151  00000+0  00000+0 0  9993
2 33055   1.1706  87.7823 0004577  84.9611 151.5152  1.00271467 55727
TURKSAT 3A              
1 33056U 08030B   23249.76716141  .00000134  00000+0  00000+0 0  9997
2 33056   0.0228 130.7743 0004910  28.5501 144.4389  1.00274766 42182
INTELSAT 25 (IS-25)     
1 33153U 08034A   23249.70022476 -.00000235  00000+0  00000+0 0  9997
2 33153   0.0809  90.2921 0002959  84.0103  31.7963  1.00270995 55527
BADR-6                  
1 33154U 08034B   23249.71171174  .00000133  00000+0  00000+0 0  9995
2 33154   0.2234  82.4162 0002718  62.4266 122.9184  1.00274866 55579
ECHOSTAR 11             
1 33207U 08035A   23250.04290535 -.00000068  00000+0  00000+0 0  9994
2 33207   0.0524 283.5748 0002704 230.5716  97.1696  1.00272989 55480
SUPERBIRD-C2            
1 33274U 08038A   23250.02619063 -.00000262  00000+0  00000+0 0  9996
2 33274   0.0140 125.2957 0001772  43.9463 329.9814  1.00271484 55219
AMC-21                  
1 33275U 08038B   23249.68160191  .00000025  00000+0  00000+0 0  9996
2 33275   0.3179  95.3246 0003019  84.7697 285.8789  1.00272545 55323
INMARSAT 4-F3           
1 33278U 08039A   23249.56403823 -.00000151  00000+0  00000+0 0  9990
2 33278   3.5135  24.6316 0002804 147.9810 277.8473  1.00272234 36376
NIMIQ 4                 
1 33373U 08044A   23249.61851052 -.00000231  00000+0  00000+0 0  9998
2 33373   0.0255 242.6617 0002227 286.6699 316.7739  1.00271006 54811
GALAXY 19 (G-19)        
1 33376U 08045A   23249.61555175 -.00000150  00000+0  00000+0 0  9999
2 33376   0.0153 122.7864 0002808  52.0342 295.2153  1.00271029 54735
ASTRA 1M                
1 33436U 08057A   23249.71031938  .00000108  00000+0  00000+0 0  9998
2 33436   0.0142 118.4789 0005013  40.3995 101.5348  1.00272060 35553
CIEL-2                  
1 33453U 08063A   23249.68081872  .00000047  00000+0  00000+0 0  9994
2 33453   0.1381  97.6200 0002812  71.9876 292.1384  1.00273311 53968
EUTELSAT HOTBIRD 13C    
1 33459U 08065A   23250.06231139 -.00000112  00000+0  00000+0 0  9993
2 33459   0.3269  86.6538 0004741 102.0199 167.1379  1.00271881 54078
EUTELSAT 48D            
1 33460U 08065B   23249.70631633 -.00000193  00000+0  00000+0 0  9996
2 33460   2.6835  86.3790 0002713  25.7680 126.6915  0.98764299 53772
FENGYUN 2E              
1 33463U 08066A   23249.98799501 -.00000210  00000+0  00000+0 0  9999
2 33463   6.9022  62.3980 0001355 186.0057 179.3121  1.00263198 53922
EXPRESS-AM44            
1 33595U 09007A   23250.06257245 -.00000100  00000+0  00000+0 0  9994
2 33595   0.8390  90.2668 0003921  80.0334 187.0931  1.00272193 53362
NSS-9                   
1 33749U 09008A   23249.64933199  .00000060  00000+0  00000+0 0  9991
2 33749   0.0518 303.8137 0002058 223.3928 235.0826  1.00271698 53346
EUTELSAT 33E            
1 33750U 09008B   23249.71310410  .00000144  00000+0  00000+0 0  9999
2 33750   0.0700  81.7508 0003977  83.7989 109.7718  1.00272787 53270
TELSTAR 11N             
1 34111U 09009A   23250.05735111 -.00000262  00000+0  00000+0 0  9992
2 34111   0.0167 150.6308 0002399   5.7502 172.5744  1.00271069 53252
EUTELSAT 10A            
1 34710U 09016A   23250.06674954  .00000056  00000+0  00000+0 0  9993
2 34710   0.3709  90.8224 0006584  59.8274 229.2797  1.00269163 52800
WGS F2 (USA 204)        
1 34713U 09017A   23249.76160427  .00000056  00000+0  00000+0 0  9997
2 34713   0.0090 148.7201 0000280 100.4280  68.1047  1.00272587 35441
SES-7 (PROTOSTAR 2)     
1 34941U 09027A   23249.85840888 -.00000357  00000+0  00000+0 0  9992
2 34941   0.0142  85.5469 0002271 140.4405 176.9697  1.00271404 52446
MEASAT-3A               
1 35362U 09032A   23250.08302278 -.00000253  00000+0  00000+0 0  9994
2 35362   0.0534 239.6465 0003753 326.1614 261.4702  1.00269873 52060
GOES 14                 
1 35491U 09033A   23250.04316641 -.00000077  00000+0  00000+0 0  9997
2 35491   0.4300 265.8551 0004165 225.1173 121.8538  1.00272247 51986
FM-5                    
1 35493U 09034A   23249.61772730 -.00000211  00000+0  00000+0 0  9996
2 35493   0.0142 206.4723 0000410   7.5901 267.6172  1.00271259 36461
TERRESTAR-1             
1 35496U 09035A   23249.63200536 -.00000067  00000+0  00000+0 0  9991
2 35496   3.9023  45.2573 0002686 121.4207 295.3332  1.00271123 51966
ASIASAT 5               
1 35696U 09042A   23250.01314362 -.00000319  00000+0  00000+0 0  9998
2 35696   0.0077 191.3665 0001293 311.6064 308.1154  1.00271667 51505
JCSAT-12 (JCSAT-RA)     
1 35755U 09044A   23250.07549278 -.00000339  00000+0  00000+0 0  9990
2 35755   0.0060 157.6043 0001482   9.3016 338.2186  1.00270840 51495
OPTUS D3                
1 35756U 09044B   23249.89771569 -.00000159  00000+0  00000+0 0  9999
2 35756   0.0475 331.1937 0002391 196.6343 297.0606  1.00270319 51399
NIMIQ 5                 
1 35873U 09050A   23249.54870979 -.00000268  00000+0  00000+0 0  9994
2 35873   0.0521 278.6431 0002792 263.0725 288.5038  1.00271416 51183
AMAZONAS 2              
1 35942U 09054A   23250.05265187 -.00000294  00000+0  00000+0 0  9991
2 35942   0.0226 144.5589 0004998  14.8961 144.3868  1.00271916 51007
COMSATBW-1              
1 35943U 09054B   23249.75604711  .00000013  00000+0  00000+0 0  9995
2 35943   0.0449 101.9507 0002593  88.7806 130.0281  1.00270981 51124
NSS-12                  
1 36032U 09058A   23249.90119005  .00000060  00000+0  00000+0 0  9995
2 36032   0.0521 295.4879 0002653 237.1760 194.4783  1.00272091 50744
THOR 6                  
1 36033U 09058B   23249.88440021 -.00000021  00000+0  00000+0 0  9996
2 36033   0.0189 223.7015 0002603 340.5206  99.0124  1.00273025 50837
INTELSAT 14 (IS-14)     
1 36097U 09064A   23249.69752705 -.00000285  00000+0  00000+0 0  9999
2 36097   0.0186 131.3114 0002307  65.0875 355.2383  1.00272037 50432
EUTELSAT 36B            
1 36101U 09065A   23249.71362623  .00000144  00000+0  00000+0 0  9998
2 36101   0.0681 359.9216 0005064 171.6903 106.6970  1.00271927 50547
INTELSAT 15 (IS-15)     
1 36106U 09067A   23250.08171743 -.00000197  00000+0  00000+0 0  9997
2 36106   0.0117 263.2700 0002429 282.6270 274.5661  1.00271836 50432
WGS F3 (USA 211)        
1 36108U 09068A   23249.98460021 -.00000279  00000+0  00000+0 0  9998
2 36108   0.2176  91.7375 0000789 128.6725  77.0559  1.00274718 50337
DIRECTV 12              
1 36131U 09075A   23250.04438473 -.00000115  00000+0  00000+0 0  9996
2 36131   0.0163 332.4664 0000391 161.2953 125.3538  1.00272367 50217
BEIDOU-2 G1             
1 36287U 10001A   23249.80813160 -.00000292  00000+0  00000+0 0  9997
2 36287   2.0176  52.2008 0003203 314.3577  50.4316  1.00270242 50001
RADUGA-1M 2             
1 36358U 10002A   23249.84036463 -.00000196  00000+0  00000+0 0  9997
2 36358   0.9813  92.5724 0003552  73.2996 207.3346  1.00271235 39916
SDO                     
1 36395U 10005A   23249.11286226 -.00000087  00000+0  00000+0 0  9994
2 36395  32.5353 102.0753 0001365 197.3359 344.2258  1.00275499 49883
INTELSAT 16 (IS-16)     
1 36397U 10006A   23249.54801360 -.00000256  00000+0  00000+0 0  9994
2 36397   0.0124 253.3669 0002376 298.8918 274.1941  1.00271342 49487
EWS-G2 (GOES 15)        
1 36411U 10008A   23249.82624912 -.00000367  00000+0  00000+0 0  9993
2 36411   0.4062 275.2121 0004380 305.9568 184.5046  0.99982187 49475
ECHOSTAR 14             
1 36499U 10010A   23250.04116490 -.00000011  00000+0  00000+0 0  9991
2 36499   0.0159 185.5820 0002503 341.3490  74.8471  1.00267622 49360
SES-1                   
1 36516U 10016A   23249.61476854 -.00000126  00000+0  00000+0 0  9998
2 36516   0.0549 295.9307 0002346 247.2580 282.5690  1.00272088 48876
ASTRA 3B                
1 36581U 10021A   23249.71118959  .00000126  00000+0  00000+0 0  9995
2 36581   0.0542  26.1451 0003828 126.5885 112.3229  1.00273966 48704
COMSATBW-2              
1 36582U 10021B   23249.70910105  .00000077  00000+0  00000+0 0  9993
2 36582   0.0368  88.8382 0002637 104.3089  60.8392  1.00272890 48787
BEIDOU-2 G3             
1 36590U 10024A   23249.72232848 -.00000147  00000+0  00000+0 0  9997
2 36590   2.1817  56.7451 0006340 358.6943 269.7844  1.00272174 48593
BADR-5                  
1 36592U 10025A   23249.71171174  .00000134  00000+0  00000+0 0  9998
2 36592   0.0234 147.6813 0005717  22.8287  97.2403  1.00276501 43043
COMS 1                  
1 36744U 10032A   23249.82063094 -.00000357  00000+0  00000+0 0  9996
2 36744   2.2142  87.8823 0000977 111.7095 209.6117  1.00271327 40913
ARABSAT-5A              
1 36745U 10032B   23249.71258196  .00000142  00000+0  00000+0 0  9995
2 36745   0.0649  51.5435 0004533  93.0929 127.9088  1.00271032 48470
ECHOSTAR 15             
1 36792U 10034A   23250.05256486 -.00000293  00000+0  00000+0 0  9996
2 36792   0.0520 288.3866 0001994 214.8689 159.8689  1.00267333 48225
BEIDOU-2 IGSO-1         
1 36828U 10036A   23249.77415300 -.00000144  00000+0  00000+0 0  9992
2 36828  54.2364 172.1501 0036733 189.0125  10.0387  1.00252775 48031
NILESAT 201             
1 36830U 10037A   23249.99173605 -.00000069  00000+0  00000+0 0  9995
2 36830   0.0237 180.3608 0005619 354.8910 160.5762  1.00271921 48126
RASCOM-QAF 1R           
1 36831U 10037B   23249.70709955  .00000007  00000+0  00000+0 0  9999
2 36831   0.0277 122.3705 0005490  50.8344  69.7594  1.00271785 48127
